[{"OBJECT_ID":"2002-051A","OBJECT_NAME":"EUTE 25C (EUTE W5)","NORAD_CAT_ID":"27554","OBJECT_TYPE":"PAYLOAD","PERIOD":"1435.691","INCLINATION":"0.7679","APOGEE":"35819.702","PERIGEE":"35737.606","ECCENTRICITY":"0.0009737","MEAN_MOTION":"1.00300124","TLE_LINE1":"1 27554U 02051A   16239.42919880 -.00000380  00000-0  00000+0 0  9994","TLE_LINE2":"2 27554   0.7679  89.6988 0009737 207.0088 318.5199  1.00300124 50443","LAUNCH_DATE":"2002-11-20","LAUNCH_SITE":"AIR FORCE EASTERN TEST RANGE","OWNER":"EUROPEAN TELECOMMUNICATIONS SATELLITE ORGANIZATION (EUTELSAT)","ORBIT_TYPE":"Geosynchronous","OPERATIONAL_STATUS":"Nonoperational","satInfo":{"lng":122.97505636357423,"lat":-0.266432223717075,"elevation":-8.836199783498499,"azimuth":192.02494363642575,"range":42659.562919082615,"height":35775.57734090802,"velocity":3.0758782635134834},"x":215,"y":139,"dx":-1.674120164196269,"dy":2.580377640537559,"maxAlt":257,"minAlt":256},{"OBJECT_ID":"2003-013C","OBJECT_NAME":"ARIANE 5 R/B","NORAD_CAT_ID":"27716","OBJECT_TYPE":"ROCKET BODY","PERIOD":"642.759","INCLINATION":"1.672","APOGEE":"35741.946","PERIGEE":"844.443","ECCENTRICITY":"0.7072481","MEAN_MOTION":"2.24033989","TLE_LINE1":"1 27716U 03013C   16238.78943113 -.00000054  00000-0  15778-3 0  9997","TLE_LINE2":"2 27716   1.6720  39.0105 7072481  49.8617 298.5022  2.24033989109539","LAUNCH_DATE":"2003-04-09","LAUNCH_SITE":"FRENCH GUIANA","OWNER":"FRANCE","ORBIT_TYPE":"Highly Elliptical Orbit","OPERATIONAL_STATUS":"N/A, derelict rocket body","satInfo":{"lng":166.57706965186242,"lat":-3.433478141017561,"elevation":-12.2485470810777,"azimuth":148.42293034813758,"range":41392.07274269869,"height":34144.36801357158,"velocity":1.8752746115049157},"x":56,"y":238,"dx":-1.824047833324066,"dy":0.4353209968525441,"maxAlt":256,"minAlt":5},{"OBJECT_ID":"2003-013D","OBJECT_NAME":"ARIANE 5 DEB (SYLDA)","NORAD_CAT_ID":"27717","OBJECT_TYPE":"DEBRIS","PERIOD":"647.393","INCLINATION":"1.9159","APOGEE":"35975.274","PERIGEE":"847.973","ECCENTRICITY":"0.7085043","MEAN_MOTION":"2.22430485","TLE_LINE1":"1 27717U 03013D   16238.81396130 -.00000134 +00000-0 -67986-2 0  9990","TLE_LINE2":"2 27717 001.9159 050.7015 7085043 022.7912 149.2820 02.22430485108767","LAUNCH_DATE":"2003-04-09","LAUNCH_SITE":"FRENCH GUIANA","OWNER":"FRANCE","ORBIT_TYPE":"Highly Elliptical Orbit","OPERATIONAL_STATUS":"N/A, space debris","satInfo":{"lng":-166.43858247093058,"lat":-3.696978821468867,"elevation":-15.876281485356039,"azimuth":121.43858247093056,"range":30056.854540282176,"height":22592.386425398327,"velocity":3.3839243568599207},"x":-40,"y":157,"dx":-3.2895775774604323,"dy":-0.7934881314924516,"maxAlt":258,"minAlt":5},{"OBJECT_ID":"2003-014A","OBJECT_NAME":"ASIASAT 4","NORAD_CAT_ID":"27718","OBJECT_TYPE":"PAYLOAD","PERIOD":"1436.150","INCLINATION":"0.0092","APOGEE":"35793.544","PERIGEE":"35781.763","ECCENTRICITY":"0.0001397","MEAN_MOTION":"1.00268014","TLE_LINE1":"1 27718U 03014A   16238.80674259 -.00000387 +00000-0 +00000-0 0  9993","TLE_LINE2":"2 27718 000.0092 162.4200 0001397 284.8762 299.6986 01.00268014049004","LAUNCH_DATE":"2003-04-12","LAUNCH_SITE":"AIR FORCE EASTERN TEST RANGE","OWNER":"ASIASAT CORP","ORBIT_TYPE":"Geosynchronous","OPERATIONAL_STATUS":"Operational","satInfo":{"lng":78.8202244418825,"lat":0.778207798232973,"elevation":-7.807236539325014,"azimuth":236.17977555811748,"range":42583.99686424897,"height":35815.02352908486,"velocity":3.073594687961349},"x":252,"y":-51,"dx":0.5959333682433713,"dy":3.0152690968599027,"maxAlt":256,"minAlt":256},{"OBJECT_ID":"2003-028B","OBJECT_NAME":"OPTUS C1","NORAD_CAT_ID":"27831","OBJECT_TYPE":"PAYLOAD","PERIOD":"1436.098","INCLINATION":"0.0354","APOGEE":"35804.609","PERIGEE":"35768.634","ECCENTRICITY":"0.0004266","MEAN_MOTION":"1.00271694","TLE_LINE1":"1 27831U 03028B   16239.49261594 -.00000176  00000-0  00000+0 0  9999","TLE_LINE2":"2 27831   0.0354 220.8112 0004266 303.3875 144.3075  1.00271694 48408","LAUNCH_DATE":"2003-06-11","LAUNCH_SITE":"FRENCH GUIANA","OWNER":"AUSTRALIA","ORBIT_TYPE":"Geosynchronous","OPERATIONAL_STATUS":"Operational","satInfo":{"lng":-126.73328436462255,"lat":0.37051435969963453,"elevation":-8.201956581097122,"azimuth":81.73328436462253,"range":42648.964119504686,"height":35835.467959113266,"velocity":3.0722772959002977},"x":-208,"y":153,"dx":-1.8375008318757269,"dy":-2.462210079534331,"maxAlt":256,"minAlt":256},{"OBJECT_ID":"2003-044B","OBJECT_NAME":"BLOCK DM-SL R/B","NORAD_CAT_ID":"27953","OBJECT_TYPE":"ROCKET BODY","PERIOD":"671.565","INCLINATION":"0.7946","APOGEE":"35769.176","PERIGEE":"2280.657","ECCENTRICITY":"0.6591436","MEAN_MOTION":"2.14424259","TLE_LINE1":"1 27953U 03044B   16238.56483914 -.00000132 +00000-0 +00000-0 0  9994","TLE_LINE2":"2 27953 000.7946 038.6462 6591436 066.8064 333.6825 02.14424259101035","LAUNCH_DATE":"2003-10-01","LAUNCH_SITE":"SEA LAUNCH","OWNER":"SEA LAUNCH DEMO","ORBIT_TYPE":"Highly Elliptical Orbit","OPERATIONAL_STATUS":"N/A, derelict rocket body","satInfo":{"lng":60.97964387837314,"lat":2.4282767008354624,"elevation":-6.706553718121709,"azimuth":254.0203561216268,"range":40018.201422776205,"height":33401.914317415096,"velocity":2.0855897139601565},"x":209,"y":-118,"dx":1.0117619613306352,"dy":1.823738519794105,"maxAlt":256,"minAlt":15},{"OBJECT_ID":"2003-053B","OBJECT_NAME":"YAMAL 201","NORAD_CAT_ID":"28094","OBJECT_TYPE":"PAYLOAD","PERIOD":"1436.394","INCLINATION":"1.68","APOGEE":"35805.899","PERIGEE":"35778.927","ECCENTRICITY":"0.0003198","MEAN_MOTION":"1.0025104","TLE_LINE1":"1 28094U 03053B   16238.80843432 -.00000250 +00000-0 +00000-0 0  9994","TLE_LINE2":"2 28094 001.6800 081.2880 0003198 174.2521 099.5838 01.00251040048951","LAUNCH_DATE":"2003-11-24","LAUNCH_SITE":"TYURATAM MISSILE AND SPACE COMPLEX","OWNER":"COMMONWEALTH OF INDEPENDENT STATES","ORBIT_TYPE":"Geosynchronous","OPERATIONAL_STATUS":"Nonoperational","satInfo":{"lng":60.52850029425273,"lat":2.99166866868242,"elevation":-5.642438759257098,"azimuth":254.47149970574722,"range":42302.94687555914,"height":35777.23969852623,"velocity":3.0751593756540503},"x":223,"y":-128,"dx":1.5129493938135168,"dy":2.677235387005095,"maxAlt":256,"minAlt":256},{"OBJECT_ID":"2003-059A","OBJECT_NAME":"AMOS 2","NORAD_CAT_ID":"28132","OBJECT_TYPE":"PAYLOAD","PERIOD":"1436.107","INCLINATION":"0.1057","APOGEE":"35798.388","PERIGEE":"35775.222","ECCENTRICITY":"0.0002747","MEAN_MOTION":"1.00271041","TLE_LINE1":"1 28132U 03059A   16238.88284251 -.00000063 +00000-0 +00000-0 0  9991","TLE_LINE2":"2 28132 000.1057 089.6899 0002747 052.5415 146.0739 01.00271041046413","LAUNCH_DATE":"2003-12-27","LAUNCH_SITE":"TYURATAM MISSILE AND SPACE COMPLEX","OWNER":"ISRAEL","ORBIT_TYPE":"Geosynchronous","OPERATIONAL_STATUS":"Operational","satInfo":{"lng":38.085832003697334,"lat":2.3925884008353333,"elevation":-6.226851656263885,"azimuth":276.91416799630264,"range":42392.25254418511,"height":35800.7442124016,"velocity":3.0745925691589946},"x":158,"y":-204,"dx":2.4199736167858985,"dy":1.8965355679205924,"maxAlt":256,"minAlt":256},{"OBJECT_ID":"2004-007A","OBJECT_NAME":"MBSAT","NORAD_CAT_ID":"28184","OBJECT_TYPE":"PAYLOAD","PERIOD":"1436.082","INCLINATION":"0.019","APOGEE":"35793.732","PERIGEE":"35778.907","ECCENTRICITY":"0.0001758","MEAN_MOTION":"1.00272774","TLE_LINE1":"1 28184U 04007A   16239.03591009  .00000013  00000-0  00000+0 0  9995","TLE_LINE2":"2 28184   0.0190 230.2828 0001758 276.8539 261.4837  1.00272774 45663","LAUNCH_DATE":"2004-03-13","LAUNCH_SITE":"AIR FORCE EASTERN TEST RANGE","OWNER":"PEOPLES REPUBLIC OF CHINA","ORBIT_TYPE":"Geosynchronous","OPERATIONAL_STATUS":"Operational","satInfo":{"lng":89.3006765472685,"lat":0.31578555547987786,"elevation":-8.266009022972195,"azimuth":225.69932345273148,"range":42602.94529000627,"height":35782.856854413374,"velocity":3.074978733019681},"x":256,"y":-5,"dx":0.03753071117749922,"dy":3.0747496896888755,"maxAlt":256,"minAlt":256},{"OBJECT_ID":"2004-008A","OBJECT_NAME":"EUTE 7A (EUTE W3A)","NORAD_CAT_ID":"28187","OBJECT_TYPE":"PAYLOAD","PERIOD":"1436.078","INCLINATION":"0.0669","APOGEE":"35809.441","PERIGEE":"35763.026","ECCENTRICITY":"0.0005504","MEAN_MOTION":"1.0027308","TLE_LINE1":"1 28187U 04008A   16239.25468428  .00000020  00000-0  00000+0 0  9999","TLE_LINE2":"2 28187   0.0669  15.2277 0005504 154.9391 263.4278  1.00273080 45663","LAUNCH_DATE":"2004-03-15","LAUNCH_SITE":"TYURATAM MISSILE AND SPACE COMPLEX","OWNER":"EUROPEAN TELECOMMUNICATIONS SATELLITE ORGANIZATION (EUTELSAT)","ORBIT_TYPE":"Geosynchronous","OPERATIONAL_STATUS":"Operational","satInfo":{"lng":7.828886110194432,"lat":0.3069403126880363,"elevation":-8.276323856502236,"azimuth":307.1711138898056,"range":42595.69719597676,"height":35774.545441377995,"velocity":3.0756812094049653},"x":34,"y":-257,"dx":3.0470136845122666,"dy":0.4189540646440488,"maxAlt":256,"minAlt":256},{"OBJECT_ID":"2004-017A","OBJECT_NAME":"AMC-11 (GE-11)","NORAD_CAT_ID":"28252","OBJECT_TYPE":"PAYLOAD","PERIOD":"1436.089","INCLINATION":"0.0666","APOGEE":"35796.167","PERIGEE":"35776.754","ECCENTRICITY":"0.0002302","MEAN_MOTION":"1.00272271","TLE_LINE1":"1 28252U 04017A   16239.28849759  .00000041  00000-0  00000+0 0  9998","TLE_LINE2":"2 28252   0.0666 291.2683 0002302 230.3477 146.2074  1.00272271 44782","LAUNCH_DATE":"2004-05-19","LAUNCH_SITE":"AIR FORCE EASTERN TEST RANGE","OWNER":"SOCIÉTÉ EUROPÉENNE DES SATELLITES","ORBIT_TYPE":"Geosynchronous","OPERATIONAL_STATUS":"Operational","satInfo":{"lng":-112.78291511822445,"lat":2.0518174269665566,"elevation":-6.565461355968499,"azimuth":67.78291511822444,"range":42410.899316598625,"height":35781.62929886632,"velocity":3.0745621177723237},"x":-239,"y":98,"dx":-1.1905955289255334,"dy":-2.8346806702948335,"maxAlt":256,"minAlt":256}]